{"type": "Feature", "properties": {"id": "liege", "name": "Liège", "district": "Liège (whole municipality)"}, "geometry": {"type": "Polygon", "coordinates": [[[5.552676895577655, 50.56101820274875], [5.551131995578383, 50.564066202747604], [5.55095759557866, 50.56617880274698], [5.55144159557862, 50.56694830274679], [5.553571695578218, 50.568236902746655], [5.552771895578479, 50.568736002746434], [5.55305669557843, 50.56896310274635], [5.551841395578807, 50.569571602746045], [5.552135795578773, 50.56994220274594], [5.551909795578857, 50.570205402745856], [5.552025095578906, 50.570895502745664], [5.551671295579077, 50.57165590274538], [5.549062595579902, 50.573096202744644], [5.546893395580566, 50.574071002744084], [5.546063295580936, 50.575508202743535], [5.5447633955814055, 50.576770402742994], [5.546792995581125, 50.5789396027426], [5.550853595580248, 50.580397902742625], [5.551249995580055, 50.57957760274295], [5.551265195579979, 50.57889740274316], [5.55183239557973, 50.57796890274347], [5.552251295579636, 50.57808190274352], [5.5521049955796995, 50.57832850274343], [5.5527646955795475, 50.578484402743456], [5.553128895579387, 50.57787440274369], [5.553277695579236, 50.576824902744015], [5.553207995579403, 50.57819440274361], [5.552153895579979, 50.58097830274263], [5.552258495580115, 50.582480402742185], [5.552869995580115, 50.58386510274183], [5.553515095580032, 50.5846459027417], [5.554858295579812, 50.58575430274152], [5.556735095579424, 50.58659410274147], [5.555763295579908, 50.58875330274072], [5.565546095577603, 50.59054310274135], [5.564147295578157, 50.592320002740635], [5.563815495578411, 50.593880102740115], [5.563376195578601, 50.59455820273988], [5.562774095578831, 50.59526230273957], [5.56184869557914, 50.59593060273925], [5.561587195579338, 50.59712660273888], [5.5611419955795345, 50.59786040273859], [5.561294895579523, 50.598102202738545], [5.560999795579661, 50.59865890273834], [5.560382895579853, 50.59900970273817], [5.559685495580126, 50.59986940273783], [5.559664095580221, 50.600674702737564], [5.559044495580453, 50.60135910273729], [5.55926239558047, 50.60203320273709], [5.559013595580566, 50.60232010273699], [5.5598112955805234, 50.603792002736654], [5.560017095580548, 50.60451060273646], [5.559752195580637, 50.60468420273636], [5.560091695580603, 50.60517280273627], [5.558798695581154, 50.60716490273549], [5.55533149558202, 50.606975002735126], [5.543552995585078, 50.6074241027336], [5.540078695586014, 50.60785530273306], [5.536434995587028, 50.60862790273238], [5.534627195587558, 50.609239002731954], [5.532536995588195, 50.61020910273141], [5.529797095589195, 50.612922102730266], [5.536535095588183, 50.61939860272913], [5.538692695587574, 50.61888690272955], [5.539560095587528, 50.62048650272916], [5.5402421955873, 50.6200076027294], [5.542206395586732, 50.619382902729846], [5.542533495586673, 50.619609002729796], [5.543082795586526, 50.619526502729876], [5.543036295586512, 50.619311802729925], [5.543927695586257, 50.619052102730144], [5.544591695586163, 50.61976020272999], [5.545493095585878, 50.61927450273026], [5.546323395585658, 50.61918530273037], [5.547952095585259, 50.6193388027305], [5.549343395585105, 50.62116350273014], [5.548463495585483, 50.62256030272961], [5.548330695585614, 50.62345990272933], [5.547815795585854, 50.62446040272894], [5.546679795586238, 50.625323802728545], [5.546363095586391, 50.62597320272834], [5.5450834955867565, 50.62629220272808], [5.544254595587187, 50.62830970272737], [5.5442456955872315, 50.628706202727244], [5.54539019558705, 50.62969570272708], [5.546905395586977, 50.63257110272641], [5.545132595587307, 50.63144380272653], [5.542717895588065, 50.632751302725836], [5.540040695588823, 50.63342130272531], [5.539298295589004, 50.63334920272524], [5.538637595589222, 50.633794802725035], [5.5393533955890915, 50.634275602724976], [5.538953895589275, 50.6350115027247], [5.538016495589627, 50.63604020272427], [5.5383487955895605, 50.63622540272426], [5.538361895589593, 50.63654260272417], [5.5376800955898196, 50.63702620272394], [5.537508095589909, 50.637442002723795], [5.538179895589934, 50.63921960272333], [5.536810395590294, 50.63930780272314], [5.53571229559065, 50.64001510272282], [5.535162795590875, 50.64080000272251], [5.533396095591502, 50.64240510272178], [5.532020995592119, 50.6448326027209], [5.528182895593159, 50.645363702720275], [5.527713595593407, 50.64653260271988], [5.524994195594213, 50.647559602719255], [5.523709595594687, 50.64889960271868], [5.52338829559486, 50.649738102718395], [5.523779195594827, 50.650339702718256], [5.526909095594323, 50.65302960271783], [5.534073295592262, 50.650935802719296], [5.5367403955914325, 50.64955520272004], [5.539405795590885, 50.65079780271999], [5.54239569558998, 50.64947760272074], [5.543774695589665, 50.64981930272081], [5.543975795589595, 50.649642502720894], [5.5441863955895485, 50.64970610272089], [5.544469195589437, 50.64937100272104], [5.545393695589238, 50.64970020272103], [5.545500695589155, 50.64920430272122], [5.545978495589042, 50.649283002721226], [5.546662295588849, 50.64909690272139], [5.547060495588789, 50.6495042027213], [5.546806295588866, 50.649612002721256], [5.547117695588845, 50.6501535027211], [5.54746719558874, 50.65001270272121], [5.5478935955886355, 50.650051602721206], [5.547358695588807, 50.650361102721085], [5.547738795588762, 50.65082640272099], [5.547469295588867, 50.65115360272085], [5.547681895588859, 50.65160630272074], [5.547544795588964, 50.652223502720545], [5.547876295589058, 50.653834202720105], [5.548165195588974, 50.65377980272014], [5.550449495588474, 50.654535602720195], [5.550613495588504, 50.655180002720016], [5.552551195588367, 50.658448402719245], [5.551895395588676, 50.65973810271879], [5.546636795589944, 50.659071002718356], [5.545648195590298, 50.65999700271796], [5.545648195590324, 50.66023060271789], [5.5433037955911, 50.66188350271712], [5.542823595591329, 50.662835702716784], [5.542484695591423, 50.662889602716724], [5.541834995591683, 50.66376990271636], [5.539499095592345, 50.66434090271592], [5.539227795592357, 50.66380570271606], [5.537080895592995, 50.664622802715556], [5.540846895592553, 50.669408902714565], [5.537534995593529, 50.6706081027138], [5.534486795594382, 50.671294402713215], [5.538360695593686, 50.6739388027129], [5.538275995593814, 50.6749270027126], [5.537823995593919, 50.674837102712544], [5.536561595594646, 50.678533602711326], [5.537880295594451, 50.67983560271104], [5.539216095594298, 50.681551502710704], [5.5398596955944575, 50.68455220270988], [5.540333295594332, 50.684475302709956], [5.541450495594171, 50.685630802709724], [5.542931995593874, 50.686359402709705], [5.544134095593506, 50.68581390271001], [5.544935695593355, 50.68631360270994], [5.545591395593146, 50.68590550271015], [5.545943695593096, 50.68629070271006], [5.547934995592547, 50.685890202710446], [5.548881995592518, 50.687870002709964], [5.550375895592172, 50.68819810271005], [5.551359695591814, 50.68722150271044], [5.551699595591744, 50.687366502710454], [5.552816895591427, 50.687068902710664], [5.553426595591305, 50.687389602710645], [5.55421659559105, 50.68690420271086], [5.550920295591719, 50.68528710271097], [5.555937295590326, 50.68429180271187], [5.557960695589751, 50.68374740271227], [5.557961895589779, 50.683994602712204], [5.558675395589584, 50.68387600271232], [5.559475095589339, 50.68353290271252], [5.560695795588905, 50.68242150271302], [5.561108995588784, 50.68227260271309], [5.5640139955881, 50.682796602713296], [5.564452695587913, 50.68212810271355], [5.564730395587848, 50.68219340271356], [5.565564895587408, 50.680100902714315], [5.566496395587109, 50.679537502714574], [5.566231295587172, 50.679496802714546], [5.566225895587084, 50.67865940271481], [5.565765095587159, 50.678299302714876], [5.565530795587111, 50.67730330271515], [5.565943695586849, 50.675865202715606], [5.565652395586722, 50.67402650271612], [5.567276495586196, 50.67300120271663], [5.5675360955859885, 50.671713402717046], [5.567121995585959, 50.670490102717366], [5.5671921955858155, 50.669320202717756], [5.567963495585259, 50.66605850271881], [5.568384595585168, 50.66617580271883], [5.568687895585003, 50.665390002719114], [5.57086179558454, 50.66625980271908], [5.571201795584413, 50.665889702719255], [5.573496795583901, 50.666576402719315], [5.5749177955835645, 50.66682050271941], [5.578852195582554, 50.66675950271992], [5.5805644955821405, 50.66698530272006], [5.581135295582036, 50.66736620272], [5.58260709558168, 50.667544402720125], [5.586720895580565, 50.66696930272077], [5.587702695580287, 50.666724002720976], [5.588317395580083, 50.66628740272119], [5.589200895579857, 50.6663210027213], [5.590637295579529, 50.66664680272137], [5.596413795577933, 50.665592402722375], [5.602089095576463, 50.66540920272309], [5.60487109557568, 50.66475110272362], [5.607681395574932, 50.66448920272406], [5.608264695574854, 50.66514020272392], [5.613254495573446, 50.66393100272489], [5.613520795573363, 50.66380870272497], [5.613561995573314, 50.66346390272509], [5.61237569557351, 50.662463402725244], [5.61315729557328, 50.662197102725415], [5.6133393955732585, 50.662410702725374], [5.614552095572886, 50.66185150272568], [5.612537895573131, 50.65938570272617], [5.611542195573304, 50.65864560272628], [5.611190295573338, 50.658123002726434], [5.608239195574016, 50.65744020272625], [5.608940095573608, 50.65533440272696], [5.6097382955734165, 50.65544730272704], [5.610368095573181, 50.65477130272732], [5.611885595572854, 50.65532200272734], [5.612988495572583, 50.65543350272745], [5.613163495572511, 50.6552048027275], [5.614659895572121, 50.65511760272773], [5.616391395571699, 50.65531230272784], [5.616631295571583, 50.65482710272805], [5.6224320955701925, 50.65569220272848], [5.624245295569781, 50.656156002728565], [5.626364695569357, 50.657247502728474], [5.628833495568649, 50.656537602728996], [5.634668695567664, 50.66120500272829], [5.6400357955669085, 50.66683650272724], [5.641061895566804, 50.66824610272695], [5.643390095566153, 50.667774102727364], [5.643353895566329, 50.6692960027269], [5.644110195566455, 50.6722152027261], [5.646027395566301, 50.675291402725406], [5.648492495566002, 50.67834420272477], [5.650323495565698, 50.67986820272452], [5.652594395565282, 50.681362402724346], [5.655557695564675, 50.6827539027243], [5.659061395563919, 50.68402490272434], [5.6586361955639175, 50.68302960272459], [5.659628595563657, 50.68297110272473], [5.658476895563807, 50.68167160272497], [5.65814109556391, 50.681785502724914], [5.657969595563939, 50.68165430272494], [5.65951149556347, 50.681003602725305], [5.659416395563437, 50.68047630272545], [5.660008995563248, 50.680120402725635], [5.659470495563361, 50.67991110272564], [5.660445895563029, 50.679163702725965], [5.662893395562302, 50.67823830272656], [5.663024595562281, 50.678354402726534], [5.663473195562146, 50.67817260272664], [5.66271379556226, 50.67744170272676], [5.663711295561967, 50.67709650272699], [5.663401195562008, 50.67672350272706], [5.666049695561227, 50.67580920272767], [5.665540995561302, 50.675298002727736], [5.666276795561096, 50.675137102727916], [5.668513695560549, 50.67537600272808], [5.669050295560435, 50.67559170272806], [5.669276295560356, 50.67541200272818], [5.6689373955604125, 50.67512450272823], [5.670095495559992, 50.673992602728696], [5.671592495559492, 50.67291460272919], [5.6722421955593045, 50.67273500272932], [5.671975795559233, 50.67147350272967], [5.673928995558699, 50.67117060273002], [5.672836995558781, 50.66934800273044], [5.6738741955584695, 50.668943402730676], [5.675256995558084, 50.668675002730915], [5.674282895558251, 50.66790600273105], [5.672755495558394, 50.66563850273155], [5.671961895558584, 50.66550780273148], [5.670982795558699, 50.664262102731755], [5.67003489555898, 50.66461440273152], [5.667334795559479, 50.66288590273174], [5.66534359555991, 50.66213470273173], [5.663950995560178, 50.66132810273177], [5.663980495560151, 50.66114110273185], [5.662994795560297, 50.66017770273201], [5.662640595560258, 50.65901020273232], [5.661783895560452, 50.658749202732295], [5.6606154955607515, 50.658773902732165], [5.6602781955608155, 50.65856080273217], [5.660181095560807, 50.65823520273226], [5.659934195560864, 50.658203602732236], [5.65919969556109, 50.658551702732034], [5.6577868955613955, 50.65802170273206], [5.656932795561546, 50.65739080273212], [5.657292295561409, 50.65699530273227], [5.657289095561379, 50.656723702732364], [5.65693279556145, 50.65652840273239], [5.655241495561947, 50.65711220273201], [5.652948095562511, 50.65689200273178], [5.6525717955625785, 50.65663160273183], [5.651610695562834, 50.65668600273172], [5.6490938955633325, 50.65538510273177], [5.648242795563478, 50.654740702731864], [5.647048295563737, 50.65429870273188], [5.642363495564679, 50.65193620273203], [5.645267195563761, 50.650330002732844], [5.647103195563268, 50.65015030273312], [5.647837595563048, 50.64984490273331], [5.652441695561835, 50.64955750273396], [5.653527895561496, 50.648985202734266], [5.655351195560878, 50.6476023027349], [5.654715395560929, 50.64660940273513], [5.653647095561091, 50.6455703027353], [5.651947995561452, 50.64488510273531], [5.65125539556162, 50.64483190273524], [5.650746895561658, 50.643987402735426], [5.651114195561528, 50.64364610273559], [5.651594295561409, 50.643682102735625], [5.651453095561373, 50.64301730273582], [5.651902595561254, 50.642981402735884], [5.651976695561211, 50.64278530273594], [5.65227719556113, 50.64273930273601], [5.652753295561019, 50.64282520273602], [5.654066895560754, 50.64348030273598], [5.655155995560459, 50.643338702736145], [5.655139395560438, 50.643098202736226], [5.655550195560306, 50.64286210273634], [5.655012095560359, 50.64210100273652], [5.65690899555975, 50.64097160273709], [5.6575021955596325, 50.64126220273708], [5.6582994955593575, 50.64063770273733], [5.6573698955595315, 50.64007240273743], [5.657976595559317, 50.63952530273765], [5.6572999955594625, 50.639262302737656], [5.657808395559283, 50.63881270273785], [5.658345095559167, 50.639010402737846], [5.658401595559131, 50.63881270273793], [5.6588817955589965, 50.63872290273798], [5.660124595558524, 50.637321602738595], [5.660548295558424, 50.63739340273861], [5.661791095558072, 50.63707000273885], [5.661621595558099, 50.63692630273887], [5.662130095557926, 50.63656690273904], [5.661819395557976, 50.6362615027391], [5.66244079555778, 50.63592020273928], [5.662949195557676, 50.636171702739276], [5.663372895557524, 50.63577640273946], [5.662131395557768, 50.635108902739496], [5.662401595557681, 50.63493010273959], [5.661689895557799, 50.63435460273968], [5.660378395558224, 50.635174502739254], [5.658688695558526, 50.63396140273944], [5.658649095558393, 50.63267560273979], [5.656763295558854, 50.63247060273965], [5.656650295558785, 50.63157230273991], [5.65684799555863, 50.63062010274021], [5.657299995558447, 50.630009302740454], [5.6566194955585845, 50.62965720274048], [5.655022995559024, 50.62995120274019], [5.652628595559559, 50.6292466027401], [5.652574195559645, 50.629891302739914], [5.651441895559927, 50.62979920273981], [5.651283595559994, 50.63004520273974], [5.650238495560256, 50.629991302739604], [5.650040795560407, 50.63088960273934], [5.649447595560601, 50.63130290273912], [5.649588795560623, 50.631823902738965], [5.647696295561054, 50.631338702738894], [5.646961895561196, 50.63092550273892], [5.646368795561384, 50.63124890273877], [5.645750895561538, 50.63119400273871], [5.645779195561496, 50.6308869027388], [5.644778195561739, 50.63074460273872], [5.643991595561901, 50.63041520273871], [5.645405495561426, 50.6293803027392], [5.644894295561472, 50.62859860273935], [5.644352495561328, 50.626024302740106], [5.642747495561764, 50.62626790273983], [5.642701695561763, 50.626135702739866], [5.641927295561972, 50.62624860273975], [5.641878095561971, 50.62612440273976], [5.641739195562025, 50.626278302739706], [5.640296795562416, 50.62648460273946], [5.64011609556245, 50.626367902739496], [5.640149795562456, 50.626502202739445], [5.639513095562632, 50.62660140273934], [5.6392553955627225, 50.626824402739246], [5.6390398955627665, 50.62673260273923], [5.638853795562754, 50.6261734027394], [5.635920695563552, 50.62660840273892], [5.6368705955632405, 50.625993302739204], [5.638397495562798, 50.625531602739514], [5.638317195562805, 50.62538530273955], [5.638998395562617, 50.62525790273968], [5.640105495562136, 50.62348710274035], [5.641651695561603, 50.62221150274092], [5.641340895561654, 50.62194200274096], [5.64145389556151, 50.6209179027413], [5.640295895561764, 50.62054060274126], [5.6381491955623115, 50.62050470274104], [5.637471295562363, 50.61937240274129], [5.637979695562214, 50.6192106027414], [5.637555995562293, 50.61895920274141], [5.6386010955619295, 50.618096702741816], [5.6363978955623475, 50.616749302741944], [5.6380361955618525, 50.61604860274234], [5.641502795560856, 50.61509300274309], [5.640590995561015, 50.61442010274315], [5.638826995561521, 50.61489870274279], [5.637471295561796, 50.61423400274284], [5.636708595561977, 50.61409030274279], [5.635390195562325, 50.61420930274258], [5.633973895562655, 50.61389490274253], [5.633483895562739, 50.613502402742576], [5.631285295563214, 50.612706802742565], [5.632725895562791, 50.61223970274288], [5.6326693955627425, 50.611646902743026], [5.63131359556299, 50.61074850274315], [5.630579195563198, 50.61092820274296], [5.6303249955632335, 50.610640702743076], [5.629873095563357, 50.61071260274301], [5.627726395563731, 50.6091136027432], [5.627585095563776, 50.60922140274316], [5.626672395563954, 50.60868270274324], [5.626935495563818, 50.60807100274342], [5.626850695563607, 50.60595100274405], [5.6273873955632885, 50.60431610274462], [5.62826309556294, 50.603184202745055], [5.6272178955631125, 50.6023218027452], [5.624308595564061, 50.60415440274429], [5.623800095564128, 50.603579502744445], [5.623348195564243, 50.60359740274436], [5.622613795564504, 50.60422620274408], [5.620947295564949, 50.60440580274383], [5.617105795566139, 50.60629230274278], [5.615636995566569, 50.606777402742466], [5.615043795566652, 50.60616650274257], [5.6148529955665385, 50.604661702743], [5.614915395565962, 50.59955070274458], [5.608914495567905, 50.60325600274272], [5.606432995568571, 50.603564802742326], [5.604677495568846, 50.601962402742586], [5.6045927955688235, 50.60154920274273], [5.605101195568596, 50.60066880274305], [5.604677495568639, 50.600058102743176], [5.604225595568723, 50.59977060274321], [5.6030956955689915, 50.59959090274314], [5.600214595569759, 50.5998604027427], [5.598745895570175, 50.60025560274237], [5.596175395570796, 50.59989610274221], [5.59496089557106, 50.599482902742174], [5.593520295571324, 50.59853070274229], [5.5923904955714425, 50.5969856027426], [5.591571295571572, 50.59624900274277], [5.589876595571739, 50.593805602743295], [5.589904795571647, 50.593033002743525], [5.591740795571032, 50.59172140274414], [5.592107995570877, 50.59116420274435], [5.591825495570888, 50.59062520274447], [5.589396395571379, 50.58942140274455], [5.588887895571452, 50.58890040274465], [5.589085595571335, 50.58827160274484], [5.591825495570407, 50.58622350274582], [5.592362195570187, 50.58545090274612], [5.592870695570065, 50.58555870274613], [5.594226395569612, 50.58455260274659], [5.594706595569433, 50.584067102746815], [5.595186795569149, 50.582593902747334], [5.5993106955679375, 50.581156502748264], [5.600135495567715, 50.5810553027484], [5.599177995567884, 50.58037970274847], [5.600271995567482, 50.579290802748915], [5.600653595567278, 50.578292702749295], [5.600595295567203, 50.57747860274952], [5.599944095567289, 50.576741402749654], [5.598456595567609, 50.57619510274965], [5.594998095568447, 50.57577400274937], [5.593584895568817, 50.57583690274915], [5.592031595569244, 50.576105302748914], [5.590512695569728, 50.57699470274845], [5.589882895569856, 50.57665480274848], [5.58901819557005, 50.576440802748444], [5.586505395570678, 50.57629610274818], [5.581325895572056, 50.57674810274742], [5.5811507955720545, 50.57633780274753], [5.5791766955725555, 50.57630230274731], [5.578896695572641, 50.576427002747224], [5.577112395573057, 50.57606720274712], [5.577341895572968, 50.57579520274721], [5.574293395573433, 50.57292620274772], [5.575773395572927, 50.57177170274825], [5.576053495572811, 50.57136660274841], [5.577027095572539, 50.5711633027486], [5.577429295572376, 50.57060620274882], [5.575453595572804, 50.569906402748785], [5.574752795572941, 50.56951370274883], [5.57332719557317, 50.56828710274902], [5.571762795573512, 50.56775680274899], [5.569423295573975, 50.566527202749086], [5.566991695574559, 50.5661659027489], [5.567355295574404, 50.5656072027491], [5.567597195574164, 50.56397740274963], [5.563495095575012, 50.562180302749674], [5.5617065955754414, 50.56190660274953], [5.557229395576606, 50.56208680274895], [5.552676895577655, 50.56101820274875]]]}}